      2.10          N: GNSS NAV DATA                        RINEX VERSION / TYPE
fic2rin                                 10/24/2021 00:18:16 PGM / RUN BY / DATE
                                                            END OF HEADER
 5 21 10 23  1 59 44.0-5.856668576598e-05-1.250555214938e-12 0.000000000000e+00
    7.000000000000e+00 2.796875000000e+01 4.634121601194e-09 5.377373399929e-01
    1.622363924980e-06 6.052888813429e-03 7.681548595428e-06 5.153599838257e+03
    5.255840000000e+05-1.713633537292e-07 1.211850554143e+00 4.470348358154e-08
    9.577534119882e-01 2.312812500000e+02 1.010765494806e+00-8.092122783681e-09
    4.671623163285e-10 1.000000000000e+00 2.180000000000e+03 0.000000000000e+00
    2.400000000000e+00 0.000000000000e+00-1.117587089539e-08 7.000000000000e+00
    5.184000000000e+05 4.000000000000e+00
 3 21 10 23  1 59 44.0-3.343457356095e-04-1.216449163621e-11 0.000000000000e+00
    4.100000000000e+01 1.903125000000e+01 4.299821961987e-09 3.043994751263e+00
    1.046806573868e-06 3.896539798006e-03 7.482245564461e-06 5.153744218826e+03
    5.255840000000e+05 3.166496753693e-08 1.250708587090e+00-2.235174179077e-08
    9.707476443130e-01 2.388750000000e+02 9.997384776805e-01-7.803896492184e-09
    5.060925093559e-10 1.000000000000e+00 2.180000000000e+03 0.000000000000e+00
    2.400000000000e+00 0.000000000000e+00 1.862645149231e-09 4.100000000000e+01
    5.184000000000e+05 4.000000000000e+00
29 21 10 23  1 59 44.0-4.301122389734e-04-5.456968210638e-12 0.000000000000e+00
    4.400000000000e+01-7.959375000000e+01 4.211246843906e-09 1.635677600880e-01
   -4.233792424202e-06 1.876174355857e-03 3.367662429810e-06 5.153563327789e+03
    5.255840000000e+05-6.332993507385e-08-7.692621213922e-01-1.490116119385e-08
    9.828082964476e-01 3.254687500000e+02 2.379675267484e+00-8.142124866468e-09
   -3.357282701443e-10 1.000000000000e+00 2.180000000000e+03 0.000000000000e+00
    2.400000000000e+00 0.000000000000e+00-1.024454832077e-08 4.400000000000e+01
    5.184000000000e+05 4.000000000000e+00
 2 21 10 23  2  0  0.0-6.387154571712e-04-1.818989403546e-12 0.000000000000e+00
    4.000000000000e+01-7.156250000000e+01 4.164459180726e-09-1.844769703869e+00
   -3.559514880180e-06 2.037604420912e-02 1.050159335136e-05 5.153781730652e+03
    5.256000000000e+05 2.272427082062e-07 1.280450472359e-01 4.824250936508e-07
    9.646799970112e-01 1.773437500000e+02-1.486291209195e+00-7.653533086088e-09
   -1.167905790821e-10 1.000000000000e+00 2.180000000000e+03 0.000000000000e+00
    2.400000000000e+00 0.000000000000e+00-1.769512891769e-08 4.000000000000e+01
    5.184000000000e+05 4.000000000000e+00
 1 21 10 23  2  0  0.0 5.316766910255e-04-1.068656274583e-11 0.000000000000e+00
    3.700000000000e+01-7.865625000000e+01 3.549076404706e-09-2.078705325986e+00
   -4.008412361145e-06 1.107342483010e-02 1.073814928532e-05 5.153679115295e+03
    5.256000000000e+05 9.126961231232e-08 2.148555350126e-01-1.229345798492e-07
    9.862048411273e-01 1.852500000000e+02 8.881013031097e-01-7.350663327490e-09
    7.928901699153e-11 1.000000000000e+00 2.180000000000e+03 0.000000000000e+00
    2.400000000000e+00 0.000000000000e+00 5.122274160385e-09 3.700000000000e+01
    5.184000000000e+05 4.000000000000e+00
 9 21 10 23  2  0  0.0-3.618937917054e-04-1.136868377216e-13 0.000000000000e+00
    3.800000000000e+01-2.481250000000e+01 4.956277877439e-09 5.791274120327e-01
   -1.378357410431e-06 2.288473187946e-03 5.621463060379e-06 5.153680767059e+03
    5.256000000000e+05-1.117587089539e-08 2.280169465433e+00-9.313225746155e-09
    9.535594189602e-01 2.652812500000e+02 1.819624668546e+00-8.288559537489e-09
   -2.475103097979e-10 1.000000000000e+00 2.180000000000e+03 0.000000000000e+00
    2.400000000000e+00 0.000000000000e+00 1.396983861923e-09 3.800000000000e+01
    5.184000000000e+05 4.000000000000e+00
 8 21 10 23  2  0  0.0-4.112627357244e-05-1.477928890381e-12 0.000000000000e+00
    6.100000000000e+01-6.206250000000e+01 4.702695886160e-09 2.568652420969e-01
   -3.349035978317e-06 6.630144431256e-03 2.065673470497e-06 5.153668697357e+03
    5.256000000000e+05 6.519258022308e-08-8.622152880762e-01 6.332993507385e-08
    9.658246089860e-01 3.392500000000e+02 5.296436974431e-02-8.489996499575e-09
   -3.382283742837e-10 1.000000000000e+00 2.180000000000e+03 0.000000000000e+00
    3.400000000000e+00 0.000000000000e+00 5.122274160385e-09 6.100000000000e+01
    5.184000000000e+05 4.000000000000e+00
 4 21 10 23  2  0  0.0-2.032741904259e-04 5.684341886081e-13 0.000000000000e+00
    3.700000000000e+01-2.634375000000e+01 4.771270171125e-09-2.573433880936e-01
   -1.359730958939e-06 1.466054120101e-03 6.010755896568e-06 5.153677656174e+03
    5.256000000000e+05 2.793967723846e-08 2.332201343399e+00 5.587935447693e-09
    9.606719028351e-01 2.621250000000e+02-3.108326705461e+00-8.153911071697e-09
   -2.746542975968e-10 1.000000000000e+00 2.180000000000e+03 0.000000000000e+00
    2.400000000000e+00 0.000000000000e+00-4.190951585770e-09 3.700000000000e+01
    5.184000000000e+05 4.000000000000e+00
 7 21 10 23  2  0  0.0 2.668048255146e-04 6.025402399246e-12 0.000000000000e+00
    1.900000000000e+01 3.953125000000e+01 4.418041172006e-09-2.708688037786e+00
    1.795589923859e-06 1.529209350701e-02 1.149624586105e-05 5.153737323761e+03
    5.256000000000e+05 1.136213541031e-07-2.931205505298e+00-2.030283212662e-07
    9.517598497837e-01 1.521250000000e+02-2.303574254371e+00-7.671390972798e-09
   -1.246480492344e-10 1.000000000000e+00 2.180000000000e+03 0.000000000000e+00
    2.400000000000e+00 0.000000000000e+00-1.117587089539e-08 1.900000000000e+01
    5.184000000000e+05 4.000000000000e+00
10 21 10 23  2  0  0.0-2.297614701092e-04-8.185452315956e-12 0.000000000000e+00
    8.300000000000e+01 2.628125000000e+01 4.376968032573e-09 2.248006373209e+00
    1.369044184685e-06 7.073681685142e-03 7.761642336845e-06 5.153672145844e+03
    5.256000000000e+05-1.490116119385e-07 1.247879471760e+00-4.470348358154e-08
    9.705974216442e-01 2.346250000000e+02-2.583723553703e+00-7.875685196758e-09
    5.553802766749e-10 1.000000000000e+00 2.180000000000e+03 0.000000000000e+00
    2.400000000000e+00 0.000000000000e+00 2.328306436539e-09 8.300000000000e+01
    5.184000000000e+05 4.000000000000e+00
 6 21 10 23  2  0  0.0 1.006051898003e-04 8.526512829121e-12 0.000000000000e+00
    8.200000000000e+01-6.775000000000e+01 3.684796343701e-09-1.697446756671e+00
   -3.559514880180e-06 2.286333008669e-03 1.041591167450e-05 5.153604372025e+03
    5.256000000000e+05-3.352761268616e-08 2.066043083902e-01 1.676380634308e-08
    9.856173405413e-01 1.935625000000e+02-1.036902774797e+00-7.609602684782e-09
    2.857261873569e-12 1.000000000000e+00 2.180000000000e+03 0.000000000000e+00
    3.400000000000e+00 0.000000000000e+00 4.190951585770e-09 8.200000000000e+01
    5.184000000000e+05 4.000000000000e+00
11 21 10 23  2  0  0.0 2.120668068528e-05-2.273736754432e-13 0.000000000000e+00
    5.400000000000e+01-6.550000000000e+01 4.239819462642e-09 6.230955202352e-01
   -3.535300493240e-06 4.417672753334e-04 1.073814928532e-05 5.153723535538e+03
    5.256000000000e+05 4.470348358154e-08 2.612738861689e-01 1.676380634308e-08
    9.612155948763e-01 1.757187500000e+02 2.351858458059e+00-7.837469319199e-09
    6.428839215530e-12 1.000000000000e+00 2.180000000000e+03 0.000000000000e+00
    4.800000000000e+01 6.300000000000e+01-8.847564458847e-09 5.660000000000e+02
    5.184000000000e+05 4.000000000000e+00
25 21 10 23  2  0  0.0 2.287747338414e-04 6.025402399246e-12 0.000000000000e+00
    5.000000000000e+00 1.159375000000e+02 4.580547941065e-09 2.698520717637e+00
    5.811452865601e-06 9.909407817759e-03 4.589557647705e-06 5.153768663406e+03
    5.256000000000e+05 3.539025783539e-08-1.894810866318e+00-1.415610313416e-07
    9.590236344981e-01 2.889375000000e+02 9.643993156968e-01-8.088908364073e-09
    2.992981812563e-10 1.000000000000e+00 2.180000000000e+03 0.000000000000e+00
    2.400000000000e+00 0.000000000000e+00 5.587935447693e-09 5.000000000000e+00
    5.184000000000e+05 4.000000000000e+00
21 21 10 23  2  0  0.0 1.486553810537e-04 1.250555214938e-12 0.000000000000e+00
    1.500000000000e+01-8.993750000000e+01 4.402326231701e-09 2.879753346657e-01
   -4.913657903671e-06 2.413796610199e-02 1.057423651218e-05 5.153631008148e+03
    5.256000000000e+05-7.078051567078e-08 1.271522970893e-01-3.799796104431e-07
    9.588829500552e-01 1.855937500000e+02-1.068448424891e+00-8.328918361453e-09
   -1.571494030463e-10 1.000000000000e+00 2.180000000000e+03 0.000000000000e+00
    2.400000000000e+00 0.000000000000e+00-1.024454832077e-08 1.500000000000e+01
    5.184000000000e+05 4.000000000000e+00
31 21 10 23  2  0  0.0-1.463429071009e-04-1.932676241267e-12 0.000000000000e+00
    3.500000000000e+01 4.859375000000e+01 4.363396038674e-09 3.125925250077e+00
    2.516433596611e-06 1.029612170532e-02 1.209229230881e-05 5.153640768051e+03
    5.256000000000e+05-1.285225152969e-07-2.913575837100e+00-1.098960638046e-07
    9.560317373479e-01 1.443125000000e+02 3.170474214291e-01-7.657818978898e-09
   -2.217949529358e-10 1.000000000000e+00 2.180000000000e+03 0.000000000000e+00
    2.400000000000e+00 0.000000000000e+00-1.303851604462e-08 3.500000000000e+01
    5.184000000000e+05 4.000000000000e+00
16 21 10 23  2  0  0.0-4.115761257708e-04-6.366462912410e-12 0.000000000000e+00
    4.300000000000e+01 1.006875000000e+02 4.531974489214e-09 1.013972749589e+00
    5.481764674187e-06 1.231200364418e-02 4.572793841362e-06 5.153780809402e+03
    5.256000000000e+05-4.470348358154e-08-1.800748161120e+00 1.173466444016e-07
    9.715667614040e-01 2.964687500000e+02 6.820700446008e-01-8.412493271255e-09
    1.432202514126e-10 1.000000000000e+00 2.180000000000e+03 0.000000000000e+00
    2.400000000000e+00 0.000000000000e+00-1.024454832077e-08 4.300000000000e+01
    5.184000000000e+05 4.000000000000e+00
